H1 CPF  2  SHA 2024 03 18 03   78  1 hy2b             NONE
H2  1808101 2208    43655 2024  3 18  0  0  0 2024  3 22 11 59  0    60 1 1  0 0 0 1
H9
10 0 60389  14400.000000  0       6259835.330       3617731.329      -1316720.424
10 0 60389  14460.000000  0       6232976.577       3482030.113      -1742950.640
10 0 60389  14520.000000  0       6182451.474       3334139.226      -2162861.505
10 0 60389  14580.000000  0       6108345.411       3174801.322      -2574932.834
10 0 60389  14640.000000  0       6010835.624       3004798.942      -2977674.237
10 0 60389  14700.000000  0       5890190.753       2824950.870      -3369630.295
10 0 60389  14760.000000  0       5746770.062       2636108.348      -3749385.745
10 0 60389  14820.000000  0       5581022.110       2439150.951      -4115570.960
10 0 60389  14880.000000  0       5393483.314       2234982.735      -4466866.473
10 0 60389  14940.000000  0       5184775.810       2024527.919      -4802008.042
10 0 60389  15000.000000  0       4955605.391       1808726.966      -5119790.692
10 0 60389  15060.000000  0       4706758.704       1588532.206      -5419073.280
10 0 60389  15120.000000  0       4439100.618       1364903.920      -5698782.088
10 0 60389  15180.000000  0       4153570.813       1138806.014      -5957914.798
10 0 60389  15240.000000  0       3851180.399        911201.987      -6195543.784
10 0 60389  15300.000000  0       3533008.349        683051.020      -6410819.130
10 0 60389  15360.000000  0       3200197.201        455303.758      -6602971.699
10 0 60389  15420.000000  0       2853949.218        228898.680      -6771315.435
10 0 60389  15480.000000  0       2495521.649          4758.075      -6915249.802
10 0 60389  15540.000000  0       2126222.502       -216215.398      -7034261.586
10 0 60389  15600.000000  0       1747405.400       -433142.511      -7127926.718
10 0 60389  15660.000000  0       1360465.024       -645170.662      -7195911.546
10 0 60389  15720.000000  0        966831.633       -851477.363      -7237973.985
10 0 60389  15780.000000  0        567965.966      -1051273.271      -7253964.226
10 0 60389  15840.000000  0        165354.120      -1243805.037      -7243825.210
10 0 60389  15900.000000  0       -239498.347      -1428358.310      -7207592.821
10 0 60389  15960.000000  0       -645071.438      -1604260.105      -7145395.806
10 0 60389  16020.000000  0      -1049836.854      -1770881.475      -7057455.318
10 0 60389  16080.000000  0      -1452263.168      -1927639.518      -6944084.279
10 0 60389  16140.000000  0      -1850822.027      -2073999.626      -6805686.257
10 0 60389  16200.000000  0      -2243993.404      -2209477.104      -6642754.279
10 0 60389  16260.000000  0      -2630271.720      -2333638.936      -6455869.121
10 0 60389  16320.000000  0      -3008171.379      -2446105.117      -6245697.488
10 0 60389  16380.000000  0      -3376232.361      -2546549.810      -6012989.948
10 0 60389  16440.000000  0      -3733026.243      -2634702.420      -5758578.257
10 0 60389  16500.000000  0      -4077161.393      -2710348.210      -5483372.863
10 0 60389  16560.000000  0      -4407288.905      -2773328.906      -5188359.521
10 0 60389  16620.000000  0      -4722107.561      -2823542.852      -4874596.301
10 0 60389  16680.000000  0      -5020369.496      -2860945.112      -4543209.594
10 0 60389  16740.000000  0      -5300884.899      -2885547.181      -4195390.640
10 0 60389  16800.000000  0      -5562527.273      -2897416.570      -3832391.005
10 0 60389  16860.000000  0      -5804237.983      -2896676.064      -3455518.357
10 0 60389  16920.000000  0      -6025030.649      -2883502.786      -3066131.966
10 0 60389  16980.000000  0      -6223995.594      -2858126.988      -2665637.487
10 0 60389  17040.000000  0      -6400303.529      -2820830.655      -2255482.324
10 0 60389  17100.000000  0      -6553209.415      -2771945.821      -1837149.955
10 0 60389  17160.000000  0      -6682055.592      -2711852.733      -1412154.959
10 0 60389  17220.000000  0      -6786274.927      -2640977.702       -982036.973
10 0 60389  17280.000000  0      -6865393.262      -2559790.886       -548355.546
10 0 60389  17340.000000  0      -6919031.796      -2468803.716       -112683.850
10 0 60389  17400.000000  0      -6946908.865      -2368566.265        323396.907
10 0 60389  17460.000000  0      -6948841.403      -2259664.440        758303.260
10 0 60389  17520.000000  0      -6924745.988      -2142716.891       1190455.811
10 0 60389  17580.000000  0      -6874639.455      -2018371.994       1618284.669
10 0 60389  17640.000000  0      -6798639.037      -1887304.472       2040235.797
10 0 60389  17700.000000  0      -6696962.187      -1750212.178       2454776.331
10 0 60389  17760.000000  0      -6569925.854      -1607812.504       2860400.751
10 0 60389  17820.000000  0      -6417945.545      -1460839.023       3255636.020
10 0 60389  17880.000000  0      -6241533.738      -1310037.793       3639047.462
10 0 60389  17940.000000  0      -6041298.010      -1156163.802       4009243.908
10 0 60389  18000.000000  0      -5817938.860       -999977.452       4364882.613
10 0 60389  18060.000000  0      -5572246.830       -842240.798       4704674.500
10 0 60389  18120.000000  0      -5305099.774       -683714.167       5027388.424
10 0 60389  18180.000000  0      -5017459.281       -525152.468       5331855.941
10 0 60389  18240.000000  0      -4710367.316       -367301.888       5616975.177
10 0 60389  18300.000000  0      -4384941.955       -210896.341       5881715.074
10 0 60389  18360.000000  0      -4042373.455        -56654.316       6125118.742
10 0 60389  18420.000000  0      -3683919.416         94724.460       6346307.081
10 0 60389  18480.000000  0      -3310900.111        242562.045       6544481.723
10 0 60389  18540.000000  0      -2924693.683        386205.142       6718927.706
10 0 60389  18600.000000  0      -2526730.514        525028.064       6869016.158
10 0 60389  18660.000000  0      -2118488.312        658435.207       6994206.230
10 0 60389  18720.000000  0      -1701486.030        785863.721       7094047.120
10 0 60389  18780.000000  0      -1277278.675        906785.671       7168179.422
10 0 60389  18840.000000  0       -847450.966       1020710.348       7216336.454
10 0 60389  18900.000000  0       -413611.892       1127186.082       7238345.062
10 0 60389  18960.000000  0         22611.734       1225802.137       7234126.251
10 0 60389  19020.000000  0        459581.185       1316190.231       7203695.426
10 0 60389  19080.000000  0        895651.838       1398025.902       7147162.355
10 0 60389  19140.000000  0       1329179.751       1471029.748       7064730.754
10 0 60389  19200.000000  0       1758527.376       1534968.305       6956697.673
10 0 60389  19260.000000  0       2182070.269       1589654.880       6823452.384
10 0 60389  19320.000000  0       2598202.741       1634950.011       6665475.219
10 0 60389  19380.000000  0       3005344.524       1670761.852       6483335.777
10 0 60389  19440.000000  0       3401946.332       1697046.221       6277691.165
10 0 60389  19500.000000  0       3786496.291       1713806.518       6049283.535
10 0 60389  19560.000000  0       4157525.557       1721093.367       5798937.589
10 0 60389  19620.000000  0       4513613.901       1719004.065       5527557.850
10 0 60389  19680.000000  0       4853395.635       1707681.839       5236125.290
10 0 60389  19740.000000  0       5175564.652       1687314.867       4925694.199
10 0 60389  19800.000000  0       5478880.019       1658135.092       4597388.143
10 0 60389  19860.000000  0       5762170.632       1620416.837       4252396.256
10 0 60389  19920.000000  0       6024340.250       1574475.199       3891968.559
10 0 60389  19980.000000  0       6264371.559       1520664.311       3517411.879
10 0 60389  20040.000000  0       6481330.628       1459375.311       3130084.686
10 0 60389  20100.000000  0       6674370.562       1391034.221       2731392.374
10 0 60389  20160.000000  0       6842734.967       1316099.669       2322782.223
10 0 60389  20220.000000  0       6985761.250       1235060.373       1905737.679
10 0 60389  20280.000000  0       7102883.171       1148432.605       1481773.289
10 0 60389  20340.000000  0       7193633.349       1056757.376       1052428.622
10 0 60389  20400.000000  0       7257645.083        960597.685        619263.027
10 0 60389  20460.000000  0       7294654.011        860535.469        183849.324
10 0 60389  20520.000000  0       7304499.136        757168.670       -252231.614
10 0 60389  20580.000000  0       7287123.529        651108.045       -687397.165
10 0 60389  20640.000000  0       7242574.519        542974.032      -1120068.715
10 0 60389  20700.000000  0       7171003.530        433393.622      -1548677.290
10 0 60389  20760.000000  0       7072665.396        322997.025      -1971669.839
10 0 60389  20820.000000  0       6947917.376        212414.577      -2387514.489
10 0 60389  20880.000000  0       6797217.588        102273.436      -2794706.633
10 0 60389  20940.000000  0       6621123.244         -6805.477      -3191774.009
10 0 60389  21000.000000  0       6420288.217       -114210.701      -3577282.499
10 0 60389  21060.000000  0       6195460.550       -219343.175      -3949840.900
10 0 60389  21120.000000  0       5947479.230       -321619.308      -4308106.289
10 0 60389  21180.000000  0       5677270.850       -420473.801      -4650788.647
10 0 60389  21240.000000  0       5385846.055       -515362.366      -4976655.228
10 0 60389  21300.000000  0       5074295.225       -605764.474      -5284535.250
10 0 60389  21360.000000  0       4743784.571       -691185.746      -5573323.542
10 0 60389  21420.000000  0       4395551.172       -771160.460      -5841984.758
10 0 60389  21480.000000  0       4030898.596       -845253.670      -6089556.552
10 0 60389  21540.000000  0       3651191.423       -913063.386      -6315153.170
99